[{"OBJECT_NAME":"BANDWAGON-2 OBJECT D","OBJECT_ID":"2024-247D","EPOCH":"2026-03-09T12:32:33.670752","MEAN_MOTION":15.29076102,"ECCENTRICITY":0.00034883,"INCLINATION":44.9954,"RA_OF_ASC_NODE":115.671,"ARG_OF_PERICENTER":351.1453,"MEAN_ANOMALY":8.9368,"EPHEMERIS_TYPE":0,"CLASSIFICATION_TYPE":"U","NORAD_CAT_ID":62380,"ELEMENT_SET_NO":999,"REV_AT_EPOCH":6773,"BSTAR":0.00040119131,"MEAN_MOTION_DOT":0.00011259,"MEAN_MOTION_DDOT":0},{"OBJECT_NAME":"STARLINK-34115","OBJECT_ID":"2025-099W","EPOCH":"2026-03-09T07:59:27.622176","MEAN_MOTION":15.27578809,"ECCENTRICITY":0.00017804,"INCLINATION":43.0002,"RA_OF_ASC_NODE":174.6067,"ARG_OF_PERICENTER":253.7711,"MEAN_ANOMALY":106.2945,"EPHEMERIS_TYPE":0,"CLASSIFICATION_TYPE":"U","NORAD_CAT_ID":63972,"ELEMENT_SET_NO":999,"REV_AT_EPOCH":4732,"BSTAR":0.0010235909,"MEAN_MOTION_DOT":0.00028011,"MEAN_MOTION_DDOT":0}]
